STARLINK2_L_00015021-21
1 10660U 26815EX  26075.69962963  .00000000  00000+0  00000-0 0  9994
2 10660  96.9000 240.0000 0000000   0.0000 255.0000 15.69614517    13
STARLINK2_L_00015021-22
1 10661U 25112WR  26075.69962963  .00000000  00000+0  00000-0 0  9994
2 10661  96.9000 240.0000 0000000   0.0000 266.2500 15.69614517    13
STARLINK2_L_00015021-23
1 10662U 24748WW  26075.69962963  .00000000  00000+0  00000-0 0  9999
2 10662  96.9000 240.0000 0000000   0.0000 277.5000 15.69614517    14
STARLINK2_L_00015021-24
1 10663U 24182RU  26075.69962963  .00000000  00000+0  00000-0 0  9992
2 10663  96.9000 240.0000 0000000   0.0000 288.7500 15.69614517    14
STARLINK2_L_00015021-25
1 10664U 25098GU  26075.69962963  .00000000  00000+0  00000-0 0  9990
2 10664  96.9000 240.0000 0000000   0.0000 300.0000 15.69614517    18
STARLINK2_L_00015021-26
1 10665U 26414XM  26075.69962963  .00000000  00000+0  00000-0 0  9994
2 10665  96.9000 240.0000 0000000   0.0000 311.2500 15.69614517    18
STARLINK2_L_00015021-27
1 10666U 25126XV  26075.69962963  .00000000  00000+0  00000-0 0  9994
2 10666  96.9000 240.0000 0000000   0.0000 322.5000 15.69614517    19
STARLINK2_L_00015021-28
1 10667U 22405WG  26075.69962963  .00000000  00000+0  00000-0 0  9992
2 10667  96.9000 240.0000 0000000   0.0000 333.7500 15.69614517    19
STARLINK2_L_00015021-29
1 10668U 23317JU  26075.69962963  .00000000  00000+0  00000-0 0  9996
2 10668  96.9000 240.0000 0000000   0.0000 345.0000 15.69614517    11
STARLINK2_L_00015021-30
1 10669U 26674A   26075.69962963  .00000000  00000+0  00000-0 0  9996
2 10669  96.9000 240.0000 0000000   0.0000 356.2500 15.69614517    11
STARLINK2_L_00015021-31
1 10670U 22666GM  26075.69962963  .00000000  00000+0  00000-0 0  9995
2 10670  96.9000 240.0000 0000000   0.0000   7.5000 15.69614517    14
STARLINK2_L_00015021-32
1 10671U 25371BW  26075.69962963  .00000000  00000+0  00000-0 0  9992
2 10671  96.9000 240.0000 0000000   0.0000  18.7500 15.69614517    14
STARLINK2_L_00015022-01
1 10672U 23034XB  26075.69962963  .00000000  00000+0  00000-0 0  9997
2 10672  96.9000 252.0000 0000000   0.0000  31.5000 15.69614517    16
STARLINK2_L_00015022-02
1 10673U 23964DT  26075.69962963  .00000000  00000+0  00000-0 0  9990
2 10673  96.9000 252.0000 0000000   0.0000  42.7500 15.69614517    16
STARLINK2_L_00015022-03
1 10674U 24079MI  26075.69962963  .00000000  00000+0  00000-0 0  9999
2 10674  96.9000 252.0000 0000000   0.0000  54.0000 15.69614517    18
STARLINK2_L_00015022-04
1 10675U 26995AS  26075.69962963  .00000000  00000+0  00000-0 0  9999
2 10675  96.9000 252.0000 0000000   0.0000  65.2500 15.69614517    18
STARLINK2_L_00015022-05
1 10676U 26988PR  26075.69962963  .00000000  00000+0  00000-0 0  9992
2 10676  96.9000 252.0000 0000000   0.0000  76.5000 15.69614517    19
STARLINK2_L_00015022-06
1 10677U 23397AC  26075.69962963  .00000000  00000+0  00000-0 0  9994
2 10677  96.9000 252.0000 0000000   0.0000  87.7500 15.69614517    19
STARLINK2_L_00015022-07
1 10678U 26758N   26075.69962963  .00000000  00000+0  00000-0 0  9999
2 10678  96.9000 252.0000 0000000   0.0000  99.0000 15.69614517    11
STARLINK2_L_00015022-08
1 10679U 26072V   26075.69962963  .00000000  00000+0  00000-0 0  9999
2 10679  96.9000 252.0000 0000000   0.0000 110.2500 15.69614517    13
STARLINK2_L_00015022-09
1 10680U 22965QS  26075.69962963  .00000000  00000+0  00000-0 0  9998
2 10680  96.9000 252.0000 0000000   0.0000 121.5000 15.69614517    15
STARLINK2_L_00015022-10
1 10681U 22275Q   26075.69962963  .00000000  00000+0  00000-0 0  9993
2 10681  96.9000 252.0000 0000000   0.0000 132.7500 15.69614517    15
STARLINK2_L_00015022-11
1 10682U 22293CZ  26075.69962963  .00000000  00000+0  00000-0 0  9994
2 10682  96.9000 252.0000 0000000   0.0000 144.0000 15.69614517    17
STARLINK2_L_00015022-12
1 10683U 22010ER  26075.69962963  .00000000  00000+0  00000-0 0  9992
2 10683  96.9000 252.0000 0000000   0.0000 155.2500 15.69614517    17
STARLINK2_L_00015022-13
1 10684U 22723AC  26075.69962963  .00000000  00000+0  00000-0 0  9994
2 10684  96.9000 252.0000 0000000   0.0000 166.5000 15.69614517    18
STARLINK2_L_00015022-14
1 10685U 25243BB  26075.69962963  .00000000  00000+0  00000-0 0  9995
2 10685  96.9000 252.0000 0000000   0.0000 177.7500 15.69614517    18
STARLINK2_L_00015022-15
1 10686U 24677VO  26075.69962963  .00000000  00000+0  00000-0 0  9996
2 10686  96.9000 252.0000 0000000   0.0000 189.0000 15.69614517    10
STARLINK2_L_00015022-16
1 10687U 22439BU  26075.69962963  .00000000  00000+0  00000-0 0  9991
2 10687  96.9000 252.0000 0000000   0.0000 200.2500 15.69614517    12
STARLINK2_L_00015022-17
1 10688U 23660TV  26075.69962963  .00000000  00000+0  00000-0 0  9999
2 10688  96.9000 252.0000 0000000   0.0000 211.5000 15.69614517    13
STARLINK2_L_00015022-18
1 10689U 24629CK  26075.69962963  .00000000  00000+0  00000-0 0  9996
2 10689  96.9000 252.0000 0000000   0.0000 222.7500 15.69614517    13
STARLINK2_L_00015022-19
1 10690U 22938TX  26075.69962963  .00000000  00000+0  00000-0 0  9999
2 10690  96.9000 252.0000 0000000   0.0000 234.0000 15.69614517    16
STARLINK2_L_00015022-20
1 10691U 24563PP  26075.69962963  .00000000  00000+0  00000-0 0  9996
2 10691  96.9000 252.0000 0000000   0.0000 245.2500 15.69614517    16
STARLINK2_L_00015022-21
1 10692U 22652CE  26075.69962963  .00000000  00000+0  00000-0 0  9994
2 10692  96.9000 252.0000 0000000   0.0000 256.5000 15.69614517    17
STARLINK2_L_00015022-22
1 10693U 25341WV  26075.69962963  .00000000  00000+0  00000-0 0  9993
2 10693  96.9000 252.0000 0000000   0.0000 267.7500 15.69614517    17
STARLINK2_L_00015022-23
1 10694U 26461FA  26075.69962963  .00000000  00000+0  00000-0 0  9998
2 10694  96.9000 252.0000 0000000   0.0000 279.0000 15.69614517    19
STARLINK2_L_00015022-24
1 10695U 23350BU  26075.69962963  .00000000  00000+0  00000-0 0  9993
2 10695  96.9000 252.0000 0000000   0.0000 290.2500 15.69614517    10
STARLINK2_L_00015022-25
1 10696U 26792DO  26075.69962963  .00000000  00000+0  00000-0 0  9997
2 10696  96.9000 252.0000 0000000   0.0000 301.5000 15.69614517    12
STARLINK2_L_00015022-26
1 10697U 25948LY  26075.69962963  .00000000  00000+0  00000-0 0  9990
2 10697  96.9000 252.0000 0000000   0.0000 312.7500 15.69614517    12
STARLINK2_L_00015022-27
1 10698U 26600MK  26075.69962963  .00000000  00000+0  00000-0 0  9997
2 10698  96.9000 252.0000 0000000   0.0000 324.0000 15.69614517    14
STARLINK2_L_00015022-28
1 10699U 22527BO  26075.69962963  .00000000  00000+0  00000-0 0  9992
2 10699  96.9000 252.0000 0000000   0.0000 335.2500 15.69614517    14
STARLINK2_L_00015022-29
1 10700U 23345DU  26075.69962963  .00000000  00000+0  00000-0 0  9994
2 10700  96.9000 252.0000 0000000   0.0000 346.5000 15.69614517    17
STARLINK2_L_00015022-30
1 10701U 25163UV  26075.69962963  .00000000  00000+0  00000-0 0  9995
2 10701  96.9000 252.0000 0000000   0.0000 357.7500 15.69614517    17
STARLINK2_L_00015022-31
1 10702U 24274UW  26075.69962963  .00000000  00000+0  00000-0 0  9998
2 10702  96.9000 252.0000 0000000   0.0000   9.0000 15.69614517    10
STARLINK2_L_00015022-32
1 10703U 26765FZ  26075.69962963  .00000000  00000+0  00000-0 0  9996
2 10703  96.9000 252.0000 0000000   0.0000  20.2500 15.69614517    11
STARLINK2_L_00015023-01
1 10704U 23510JX  26075.69962963  .00000000  00000+0  00000-0 0  9992
2 10704  96.9000 264.0000 0000000   0.0000  33.0000 15.69614517    12
STARLINK2_L_00015023-02
1 10705U 22939GB  26075.69962963  .00000000  00000+0  00000-0 0  9997
2 10705  96.9000 264.0000 0000000   0.0000  44.2500 15.69614517    12
STARLINK2_L_00015023-03
1 10706U 25445NG  26075.69962963  .00000000  00000+0  00000-0 0  9993
2 10706  96.9000 264.0000 0000000   0.0000  55.5000 15.69614517    13
STARLINK2_L_00015023-04
1 10707U 22855GK  26075.69962963  .00000000  00000+0  00000-0 0  9996
2 10707  96.9000 264.0000 0000000   0.0000  66.7500 15.69614517    13
STARLINK2_L_00015023-05
1 10708U 23122KT  26075.69962963  .00000000  00000+0  00000-0 0  9995
2 10708  96.9000 264.0000 0000000   0.0000  78.0000 15.69614517    15
STARLINK2_L_00015023-06
1 10709U 24206WJ  26075.69962963  .00000000  00000+0  00000-0 0  9990
2 10709  96.9000 264.0000 0000000   0.0000  89.2500 15.69614517    15
STARLINK2_L_00015023-07
1 10710U 26256GI  26075.69962963  .00000000  00000+0  00000-0 0  9999
2 10710  96.9000 264.0000 0000000   0.0000 100.5000 15.69614517    19
STARLINK2_L_00015023-08
1 10711U 22764TF  26075.69962963  .00000000  00000+0  00000-0 0  9990
2 10711  96.9000 264.0000 0000000   0.0000 111.7500 15.69614517    19
STARLINK2_L_00015023-09
1 10712U 23212WK  26075.69962963  .00000000  00000+0  00000-0 0  9990
2 10712  96.9000 264.0000 0000000   0.0000 123.0000 15.69614517    11
STARLINK2_L_00015023-10
1 10713U 23951IN  26075.69962963  .00000000  00000+0  00000-0 0  9991
2 10713  96.9000 264.0000 0000000   0.0000 134.2500 15.69614517    11
STARLINK2_L_00015023-11
1 10714U 26983OQ  26075.69962963  .00000000  00000+0  00000-0 0  9990
2 10714  96.9000 264.0000 0000000   0.0000 145.5000 15.69614517    12
STARLINK2_L_00015023-12
1 10715U 24432JT  26075.69962963  .00000000  00000+0  00000-0 0  9998
2 10715  96.9000 264.0000 0000000   0.0000 156.7500 15.69614517    12
STARLINK2_L_00015023-13
1 10716U 26985LO  26075.69962963  .00000000  00000+0  00000-0 0  9994
2 10716  96.9000 264.0000 0000000   0.0000 168.0000 15.69614517    14
STARLINK2_L_00015023-14
1 10717U 22932VK  26075.69962963  .00000000  00000+0  00000-0 0  9993
2 10717  96.9000 264.0000 0000000   0.0000 179.2500 15.69614517    14
STARLINK2_L_00015023-15
1 10718U 23860NQ  26075.69962963  .00000000  00000+0  00000-0 0  9995
2 10718  96.9000 264.0000 0000000   0.0000 190.5000 15.69614517    16
STARLINK2_L_00015023-16
1 10719U 23794RK  26075.69962963  .00000000  00000+0  00000-0 0  9992
2 10719  96.9000 264.0000 0000000   0.0000 201.7500 15.69614517    17
